ONEWEB-0293             
1 49082U 21075H   24280.53661891 -.00000033  00000+0 -11901-3 0  9995
2 49082  87.9099 129.1258 0001802  74.4078 285.7253 13.17651756152165
ONEWEB-0294             
1 49083U 21075J   24280.28364957 -.00000345  00000+0 -99396-3 0  9991
2 49083  87.8838 113.9301 0002671  70.4109 289.7307 13.12444266153393
ONEWEB-0295             
1 49084U 21075K   24280.53576989  .00000250  00000+0  61036-3 0  9993
2 49084  87.9098 129.1041 0001619  65.5791 294.5509 13.17651386152122
ONEWEB-0296             
1 49085U 21075L   24280.11168660 -.00000344  00000+0 -99244-3 0  9999
2 49085  87.8848 113.9661 0001767  59.5491 300.5812 13.12441565153372
ONEWEB-0297             
1 49086U 21075M   24280.44748034  .00000415  00000+0  11171-2 0  9994
2 49086  87.8855 113.9144 0001528  82.8707 277.2595 13.12443817154024
ONEWEB-0298             
1 49087U 21075N   24280.54001282 -.00000017  00000+0 -77122-4 0  9993
2 49087  87.9100 129.1213 0001451  78.7514 281.3781 13.17651369152153
ONEWEB-0299             
1 49088U 21075P   24280.54169173 -.00000036  00000+0 -12589-3 0  9994
2 49088  87.9096 129.0855 0001385  76.1278 284.0008 13.17648721152132
